<!doctype html>

<html>

<head>

<title>TLE for NORAD Catalog Number 44290</title>

</head>

<body>

<pre>
STARLINK-78             
1 44290U 19029BH  19301.90149861  .00001919  00000-0  15114-3 0  9997
2 44290  53.0048 184.0692 0002316 102.1825 257.9422 15.05505150 23139

</pre>
	
</body>

</html>
